CCSDS_OMM_VERS = 2.0
CREATION_DATE  = 
ORIGINATOR     = 

OBJECT_NAME    = UNKNOWN
OBJECT_ID      = 
CENTER_NAME    = EARTH
REF_FRAME      = TEME
TIME_SYSTEM    = UTC
MEAN_ELEMENT_THEORY = SGP/SGP4

EPOCH          = 2025-12-06T05:56:37.180320
MEAN_MOTION    = 13.38009419
ECCENTRICITY   = .0209339
INCLINATION    = 67.1350
RA_OF_ASC_NODE = 190.9228
ARG_OF_PERICENTER = 38.8401
MEAN_ANOMALY   = 71.7466

EPHEMERIS_TYPE = 0
CLASSIFICATION_TYPE = U
NORAD_CAT_ID   = 81317
ELEMENT_SET_NO = 999
REV_AT_EPOCH   = 58776
BSTAR          = .75188E-3
MEAN_MOTION_DOT = .386E-5
MEAN_MOTION_DDOT = 0

CCSDS_OMM_VERS = 2.0
CREATION_DATE  = 
ORIGINATOR     = 

OBJECT_NAME    = UNKNOWN
OBJECT_ID      = 
CENTER_NAME    = EARTH
REF_FRAME      = TEME
TIME_SYSTEM    = UTC
MEAN_ELEMENT_THEORY = SGP/SGP4

EPOCH          = 2025-12-01T12:22:59.634336
MEAN_MOTION    = 14.46261535
ECCENTRICITY   = .0346503
INCLINATION    = 65.7509
RA_OF_ASC_NODE = 60.2980
ARG_OF_PERICENTER = 319.1450
MEAN_ANOMALY   = 38.4133

EPHEMERIS_TYPE = 0
CLASSIFICATION_TYPE = U
NORAD_CAT_ID   = 81323
ELEMENT_SET_NO = 999
REV_AT_EPOCH   = 11143
BSTAR          = .20924E-2
MEAN_MOTION_DOT = .15905E-3
MEAN_MOTION_DDOT = 0

CCSDS_OMM_VERS = 2.0
CREATION_DATE  = 
ORIGINATOR     = 

OBJECT_NAME    = UNKNOWN
OBJECT_ID      = 
CENTER_NAME    = EARTH
REF_FRAME      = TEME
TIME_SYSTEM    = UTC
MEAN_ELEMENT_THEORY = SGP/SGP4

EPOCH          = 2025-12-01T13:42:47.041056
MEAN_MOTION    = 13.22101347
ECCENTRICITY   = .083082
INCLINATION    = 65.8164
RA_OF_ASC_NODE = 155.7167
ARG_OF_PERICENTER = 35.0925
MEAN_ANOMALY   = 330.2044

EPHEMERIS_TYPE = 0
CLASSIFICATION_TYPE = U
NORAD_CAT_ID   = 81329
ELEMENT_SET_NO = 999
REV_AT_EPOCH   = 57660
BSTAR          = .54271E-3
MEAN_MOTION_DOT = .1428E-4
MEAN_MOTION_DDOT = 0

CCSDS_OMM_VERS = 2.0
CREATION_DATE  = 
ORIGINATOR     = 

OBJECT_NAME    = UNKNOWN
OBJECT_ID      = 
CENTER_NAME    = EARTH
REF_FRAME      = TEME
TIME_SYSTEM    = UTC
MEAN_ELEMENT_THEORY = SGP/SGP4

EPOCH          = 2025-12-06T01:13:10.989696
MEAN_MOTION    = 15.03721668
ECCENTRICITY   = .000695
INCLINATION    = 85.8733
RA_OF_ASC_NODE = 202.9273
ARG_OF_PERICENTER = 295.9653
MEAN_ANOMALY   = 64.0864

EPHEMERIS_TYPE = 0
CLASSIFICATION_TYPE = U
NORAD_CAT_ID   = 81343
ELEMENT_SET_NO = 999
REV_AT_EPOCH   = 45331
BSTAR          = .6847E-3
MEAN_MOTION_DOT = .9424E-4
MEAN_MOTION_DDOT = 0

CCSDS_OMM_VERS = 2.0
CREATION_DATE  = 
ORIGINATOR     = 

OBJECT_NAME    = UNKNOWN
OBJECT_ID      = 
CENTER_NAME    = EARTH
REF_FRAME      = TEME
TIME_SYSTEM    = UTC
MEAN_ELEMENT_THEORY = SGP/SGP4

EPOCH          = 2025-12-06T12:20:22.286112
MEAN_MOTION    = 13.78812701
ECCENTRICITY   = .0116914
INCLINATION    = 66.7994
RA_OF_ASC_NODE = 66.8975
ARG_OF_PERICENTER = 327.4084
MEAN_ANOMALY   = 31.9808

EPHEMERIS_TYPE = 0
CLASSIFICATION_TYPE = U
NORAD_CAT_ID   = 81359
ELEMENT_SET_NO = 999
REV_AT_EPOCH   = 60462
BSTAR          = .1197E-2
MEAN_MOTION_DOT = .1209E-4
MEAN_MOTION_DDOT = 0

CCSDS_OMM_VERS = 2.0
CREATION_DATE  = 
ORIGINATOR     = 

OBJECT_NAME    = UNKNOWN
OBJECT_ID      = 
CENTER_NAME    = EARTH
REF_FRAME      = TEME
TIME_SYSTEM    = UTC
MEAN_ELEMENT_THEORY = SGP/SGP4

EPOCH          = 2025-12-04T14:38:20.753088
MEAN_MOTION    = 13.45126086
ECCENTRICITY   = .0709617
INCLINATION    = 65.8840
RA_OF_ASC_NODE = 91.2408
ARG_OF_PERICENTER = 85.6311
MEAN_ANOMALY   = 282.5415

EPHEMERIS_TYPE = 0
CLASSIFICATION_TYPE = U
NORAD_CAT_ID   = 81366
ELEMENT_SET_NO = 999
REV_AT_EPOCH   = 6486
BSTAR          = .63297E-3
MEAN_MOTION_DOT = .1701E-4
MEAN_MOTION_DDOT = 0

CCSDS_OMM_VERS = 2.0
CREATION_DATE  = 
ORIGINATOR     = 

OBJECT_NAME    = UNKNOWN
OBJECT_ID      = 
CENTER_NAME    = EARTH
REF_FRAME      = TEME
TIME_SYSTEM    = UTC
MEAN_ELEMENT_THEORY = SGP/SGP4

EPOCH          = 2025-12-05T11:49:47.388576
MEAN_MOTION    = 14.70202489
ECCENTRICITY   = .0070646
INCLINATION    = 98.8157
RA_OF_ASC_NODE = 75.3349
ARG_OF_PERICENTER = 27.8469
MEAN_ANOMALY   = 332.6488

EPHEMERIS_TYPE = 0
CLASSIFICATION_TYPE = U
NORAD_CAT_ID   = 81371
ELEMENT_SET_NO = 999
REV_AT_EPOCH   = 64077
BSTAR          = .11223E-2
MEAN_MOTION_DOT = .6971E-4
MEAN_MOTION_DDOT = 0

CCSDS_OMM_VERS = 2.0
CREATION_DATE  = 
ORIGINATOR     = 

OBJECT_NAME    = UNKNOWN
OBJECT_ID      = 
CENTER_NAME    = EARTH
REF_FRAME      = TEME
TIME_SYSTEM    = UTC
MEAN_ELEMENT_THEORY = SGP/SGP4

EPOCH          = 2025-12-06T10:25:17.018400
MEAN_MOTION    = 14.36165482
ECCENTRICITY   = .0083665
INCLINATION    = 71.0479
RA_OF_ASC_NODE = 10.2212
ARG_OF_PERICENTER = 95.6263
MEAN_ANOMALY   = 265.4420

EPHEMERIS_TYPE = 0
CLASSIFICATION_TYPE = U
NORAD_CAT_ID   = 81386
ELEMENT_SET_NO = 999
REV_AT_EPOCH   = 62333
BSTAR          = .28402E-2
MEAN_MOTION_DOT = .8583E-4
MEAN_MOTION_DDOT = 0

CCSDS_OMM_VERS = 2.0
CREATION_DATE  = 
ORIGINATOR     = 

OBJECT_NAME    = UNKNOWN
OBJECT_ID      = 
CENTER_NAME    = EARTH
REF_FRAME      = TEME
TIME_SYSTEM    = UTC
MEAN_ELEMENT_THEORY = SGP/SGP4

EPOCH          = 2025-12-06T10:08:01.034880
MEAN_MOTION    = 12.35638009
ECCENTRICITY   = .0165215
INCLINATION    = 103.1057
RA_OF_ASC_NODE = 228.7215
ARG_OF_PERICENTER = 156.2432
MEAN_ANOMALY   = 204.6361

EPHEMERIS_TYPE = 0
CLASSIFICATION_TYPE = U
NORAD_CAT_ID   = 81390
ELEMENT_SET_NO = 999
REV_AT_EPOCH   = 49931
BSTAR          = -.21702E-2
MEAN_MOTION_DOT = -.337E-5
MEAN_MOTION_DDOT = 0

CCSDS_OMM_VERS = 2.0
CREATION_DATE  = 
ORIGINATOR     = 

OBJECT_NAME    = UNKNOWN
OBJECT_ID      = 
CENTER_NAME    = EARTH
REF_FRAME      = TEME
TIME_SYSTEM    = UTC
MEAN_ELEMENT_THEORY = SGP/SGP4

EPOCH          = 2025-12-06T05:50:03.789888
MEAN_MOTION    = 13.81614396
ECCENTRICITY   = .0040424
INCLINATION    = 100.3967
RA_OF_ASC_NODE = 327.8101
ARG_OF_PERICENTER = 44.7294
MEAN_ANOMALY   = 331.9556

EPHEMERIS_TYPE = 0
CLASSIFICATION_TYPE = U
NORAD_CAT_ID   = 81392
ELEMENT_SET_NO = 999
REV_AT_EPOCH   = 60128
BSTAR          = .52339E-2
MEAN_MOTION_DOT = .5573E-4
MEAN_MOTION_DDOT = 0

CCSDS_OMM_VERS = 2.0
CREATION_DATE  = 
ORIGINATOR     = 

OBJECT_NAME    = UNKNOWN
OBJECT_ID      = 
CENTER_NAME    = EARTH
REF_FRAME      = TEME
TIME_SYSTEM    = UTC
MEAN_ELEMENT_THEORY = SGP/SGP4

EPOCH          = 2025-11-30T21:10:58.911456
MEAN_MOTION    = 13.88804744
ECCENTRICITY   = .0160706
INCLINATION    = 99.4716
RA_OF_ASC_NODE = 22.8652
ARG_OF_PERICENTER = 255.2060
MEAN_ANOMALY   = 103.1244

EPHEMERIS_TYPE = 0
CLASSIFICATION_TYPE = U
NORAD_CAT_ID   = 81405
ELEMENT_SET_NO = 999
REV_AT_EPOCH   = 56015
BSTAR          = .13072E-2
MEAN_MOTION_DOT = .1703E-4
MEAN_MOTION_DDOT = 0

CCSDS_OMM_VERS = 2.0
CREATION_DATE  = 
ORIGINATOR     = 

OBJECT_NAME    = UNKNOWN
OBJECT_ID      = 
CENTER_NAME    = EARTH
REF_FRAME      = TEME
TIME_SYSTEM    = UTC
MEAN_ELEMENT_THEORY = SGP/SGP4

EPOCH          = 2025-11-29T23:25:05.808288
MEAN_MOTION    = 13.12098095
ECCENTRICITY   = .0866885
INCLINATION    = 65.8150
RA_OF_ASC_NODE = 183.4971
ARG_OF_PERICENTER = 325.4234
MEAN_ANOMALY   = 29.3212

EPHEMERIS_TYPE = 0
CLASSIFICATION_TYPE = U
NORAD_CAT_ID   = 81406
ELEMENT_SET_NO = 999
REV_AT_EPOCH   = 53200
BSTAR          = .77531E-3
MEAN_MOTION_DOT = .1902E-4
MEAN_MOTION_DDOT = 0

