UNKNOWN                 
1 81317U          25340.24765255  .00000386  00000+0  75188-3 0  9998
2 81317  67.1350 190.9228 0209339  38.8401  71.7466 13.38009419587767
UNKNOWN                 
1 81323U          25335.51596799  .00015905  00000+0  20924-2 0  9994
2 81323  65.7509  60.2980 0346503 319.1450  38.4133 14.46261535111439
UNKNOWN                 
1 81329U          25335.57137779  .00001428  00000+0  54271-3 0  9993
2 81329  65.8164 155.7167 0830820  35.0925 330.2044 13.22101347576606
UNKNOWN                 
1 81343U          25340.05082164  .00009424  00000+0  68470-3 0  9995
2 81343  85.8733 202.9273 0006950 295.9653  64.0864 15.03721668453312
UNKNOWN                 
1 81359U          25340.51414683  .00001209  00000+0  11970-2 0  9993
2 81359  66.7994  66.8975 0116914 327.4084  31.9808 13.78812701604625
UNKNOWN                 
1 81366U          25338.60996242  .00001701  00000+0  63297-3 0  9991
2 81366  65.8840  91.2408 0709617  85.6311 282.5415 13.45126086 64862
UNKNOWN                 
1 81371U          25339.49290959  .00006971  00000+0  11223-2 0  9992
2 81371  98.8157  75.3349 0070646  27.8469 332.6488 14.70202489640775
UNKNOWN                 
1 81386U          25340.43422475  .00008583  00000+0  28402-2 0  9992
2 81386  71.0479  10.2212 0083665  95.6263 265.4420 14.36165482623333
UNKNOWN                 
1 81390U          25340.42223420 -.00000337  00000+0 -21702-2 0  9992
2 81390 103.1057 228.7215 0165215 156.2432 204.6361 12.35638009499315
UNKNOWN                 
1 81392U          25340.24309942  .00005573  00000+0  52339-2 0  9993
2 81392 100.3967 327.8101 0040424  44.7294 331.9556 13.81614396601288
UNKNOWN                 
1 81405U          25334.88262629  .00001703  00000+0  13072-2 0  9993
2 81405  99.4716  22.8652 0160706 255.2060 103.1244 13.88804744560150
UNKNOWN                 
1 81406U          25333.97576167  .00001902  00000+0  77531-3 0  9990
2 81406  65.8150 183.4971 0866885 325.4234  29.3212 13.12098095532000
